DONGPO 10               
1 54689U 22167H   26140.61164931  .00007450  00000+0  23024-3 0  9993
2 54689  97.6931 309.5993 0004776 195.9042 164.2050 15.33829304191132
JILIN-1 GAOFEN 03D48    
1 54695U 22167P   26140.62286103  .00007857  00000+0  23704-3 0  9993
2 54695  97.6865 308.9803 0006041 203.2513 156.8457 15.34567416191166
STAR VIBE               
1 55009U 23001A   26140.59434866  .00010607  00000+0  25251-3 0  9994
2 55009  97.3180 204.9616 0005422 196.1642 163.9433 15.41783362187970
BRO-8                   
1 55011U 23001C   26140.64252353  .00021155  00000+0  41655-3 0  9998
2 55011  97.3223 205.4648 0005795 203.0123 157.0868 15.47243432187945
CONNECTA T1.2           
1 55012U 23001D   26140.59793921  .00028879  00000+0  54230-3 0  9997
2 55012  97.3284 210.8405 0006608 180.3863 179.7384 15.48547122188271
BIRKELAND               
1 55015U 23001G   26140.65764983  .00006966  00000+0  17928-3 0  9999
2 55015  97.3350 208.5665 0006604 189.0721 171.0407 15.39541757188117
ION SCV-008             
1 55051U 23001AU  26140.54405404  .00004749  00000+0  17502-3 0  9992
2 55051  97.5696 236.4103 0016486 109.4467 250.8555 15.28194491187117
ION SCV-007             
1 55060U 23001BD  26140.43228180  .00000257  00000+0  43155-4 0  9998
2 55060  97.9021 203.9960 0013685  68.5674 291.6995 14.77524498182153
HUYGENS                 
1 55093U 23001CN  26140.65773362  .00006538  00000+0  16826-3 0  9997
2 55093  97.3257 207.8320 0010032 172.2892 187.8510 15.39539525188134
SHARJAHSAT-1            
1 55104U 23001CZ  26140.64897753  .00013306  00000+0  25653-3 0  9999
2 55104  97.3179 209.0546 0005942 185.0703 175.0489 15.47956156188238
HORUS 1                 
1 55690U 23025A   26140.63136093  .00003862  00000+0  16589-3 0  9991
2 55690  97.3464 215.8041 0001083 135.3411 224.7914 15.23271537179856
HORUS 2                 
1 55844U 23032A   26140.60130417  .00003856  00000+0  16473-3 0  9996
2 55844  97.3534 216.5534 0003107 131.8709 228.2794 15.23453527177281
GLOBAL-19               
1 55982U 23041B   26140.63595777  .00010189  00000+0  26930-3 0  9992
2 55982  42.0027   2.6279 0005515 161.2732 198.8312 15.38425729177687
BRO-9                   
1 56185U 23054H   26140.36521218  .00199154  00000+0  88088-3 0  9993
2 56185  97.2966  56.7557 0008006 117.4320 242.7765 15.83876767174668
ION SCV-010             
1 56192U 23054Q   26140.55490813  .00003128  00000+0  12460-3 0  9994
2 56192  97.3810  30.4087 0011390 307.8404  52.1803 15.25925902171980
TELEOS-2                
1 56310U 23057C   26140.36246404  .00004552  00000+0  33202-3 0  9992
2 56310   9.9888  46.7712 0000834 263.8756  96.1362 14.96365126168621
SNIPE 4                 
1 56744U 23072B   26140.63020934  .00015007  00000+0  36360-3 0  9993
2 56744  97.5274 345.7828 0006915  73.3179 286.8826 15.41159731165863
SNIPE 2                 
1 56745U 23072C   26140.62094503  .00018302  00000+0  38510-3 0  9996
2 56745  97.5269 348.6326 0006396  97.9271 262.2704 15.45332914165987
2023-072G               
1 56749U 23072G   26140.62133463  .00019923  00000+0  37074-3 0  9993
2 56749  97.4926 347.4087 0005537  89.4068 270.7817 15.48891486166197
GEISAT PRECURSOR        
1 56934U 23084C   26140.63418103  .00005350  00000+0  16392-3 0  9999
2 56934  97.6193 280.6953 0007183  87.9467 272.2598 15.34227722163300
BLACKJACK ACES-3        
1 56950U 23084U   26140.62337626  .00003045  00000+0  15198-3 0  9998
2 56950  97.6178 275.6151 0004057 100.5387 259.6304 15.18277720162987
BLACKJACK ACES-2        
1 56955U 23084Z   26140.62988940  .00003575  00000+0  17816-3 0  9991
2 56955  97.6177 275.7064 0002242  92.3031 267.8459 15.18220705162997
BLACKJACK ACES-1        
1 56956U 23084AA  26140.61784366  .00004337  00000+0  21549-3 0  9992
2 56956  97.6168 275.4716 0001517  95.1410 264.9997 15.18203764112711
ION SCV-011             
1 56957U 23084AB  26140.24723000  .00003693  00000+0  13607-3 0  9990
2 56957  98.1382 324.9447 0008333 129.2040 230.9938 15.28539869161540
GHOST-3                 
1 56958U 23084AC  26140.35664942  .00012260  00000+0  24548-3 0  9998
2 56958  97.6191 287.4631 0006730  45.2491 314.9305 15.46885312163716
TOMORROW-R2             
1 56962U 23084AG  26140.42773500  .00156679  11179-4  51507-3 0  9994
2 56962  97.5949 301.0233 0002687 268.1033  91.9932 15.90533549164627
AFR-1                   
1 56964U 23084AJ  26140.67004308  .00003158  00000+0  11728-3 0  9996
2 56964  97.6241 276.7107 0011988  78.7011 281.5574 15.28288904163023
METEOR-M2 3             
1 57166U 23091A   26140.62588990 -.00000019  00000+0  10509-4 0  9999
2 57166  98.6097 196.1653 0002885 241.7844 118.3044 14.24044145150590
UMKA 1 (RS40S)          
1 57172U 23091G   26140.58793997  .00003986  00000+0  18553-3 0  9997
2 57172  97.5063 199.3960 0012132 209.0088 151.0474 15.20460955159810
2023-091H               
1 57173U 23091H   26140.61841414  .00007529  00000+0  27831-3 0  9996
2 57173  97.5057 203.5990 0009593 201.5769 158.5067 15.27968363160090
