OBJECT_NAME,OBJECT_ID,EPOCH,MEAN_MOTION,ECCENTRICITY,INCLINATION,RA_OF_ASC_NODE,ARG_OF_PERICENTER,MEAN_ANOMALY,EPHEMERIS_TYPE,CLASSIFICATION_TYPE,NORAD_CAT_ID,ELEMENT_SET_NO,REV_AT_EPOCH,BSTAR,MEAN_MOTION_DOT,MEAN_MOTION_DDOT
DONGPO 10,2022-167H,2026-05-20T14:40:46.500384,15.33829304,.0004776,97.6931,309.5993,195.9042,164.2050,0,U,54689,999,19113,.23023795E-3,.745E-4,0
JILIN-1 GAOFEN 03D48,2022-167P,2026-05-20T14:56:55.192992,15.34567416,.00060412,97.6865,308.9803,203.2513,156.8457,0,U,54695,999,19116,.23703728E-3,.7857E-4,0
STAR VIBE,2023-001A,2026-05-20T14:15:51.724224,15.41783362,.00054227,97.3180,204.9616,196.1642,163.9433,0,U,55009,999,18797,.25250838E-3,.10607E-3,0
BRO-8,2023-001C,2026-05-20T15:25:14.032992,15.47243432,.00057957,97.3223,205.4648,203.0123,157.0868,0,U,55011,999,18794,.41655135E-3,.21155E-3,0
CONNECTA T1.2,2023-001D,2026-05-20T14:21:01.947744,15.48547122,.00066088,97.3284,210.8405,180.3863,179.7384,0,U,55012,999,18827,.54229509E-3,.28879E-3,0
BIRKELAND,2023-001G,2026-05-20T15:47:00.945312,15.39541757,.00066042,97.3350,208.5665,189.0721,171.0407,0,U,55015,999,18811,.17927565E-3,.6966E-4,0
ION SCV-008,2023-001AU,2026-05-20T13:03:26.269056,15.28194491,.00164869,97.5696,236.4103,109.4467,250.8555,0,U,55051,999,18711,.17502149E-3,.4749E-4,0
ION SCV-007,2023-001BD,2026-05-20T10:22:29.147520,14.77524498,.00136853,97.9021,203.9960,68.5674,291.6995,0,U,55060,999,18215,.43155239E-4,.257E-5,0
HUYGENS,2023-001CN,2026-05-20T15:47:08.184768,15.39539525,.00100327,97.3257,207.8320,172.2892,187.8510,0,U,55093,999,18813,.16825873E-3,.6538E-4,0
SHARJAHSAT-1,2023-001CZ,2026-05-20T15:34:31.658592,15.47956156,.00059422,97.3179,209.0546,185.0703,175.0489,0,U,55104,999,18823,.25652823E-3,.13306E-3,0
HORUS 1,2023-025A,2026-05-20T15:09:09.584352,15.23271537,.00010839,97.3464,215.8041,135.3411,224.7914,0,U,55690,999,17985,.16589147E-3,.3862E-4,0
HORUS 2,2023-032A,2026-05-20T14:25:52.680288,15.23453527,.0003107,97.3534,216.5534,131.8709,228.2794,0,U,55844,999,17728,.16473206E-3,.3856E-4,0
GLOBAL-19,2023-041B,2026-05-20T15:15:46.751328,15.38425729,.00055154,42.0027,2.6279,161.2732,198.8312,0,U,55982,999,17768,.26930094E-3,.10189E-3,0
BRO-9,2023-054H,2026-05-20T08:45:54.332352,15.83876767,.00080065,97.2966,56.7557,117.4320,242.7765,0,U,56185,999,17466,.8808845E-3,.199154E-2,0
ION SCV-010,2023-054Q,2026-05-20T13:19:04.062432,15.25925902,.00113907,97.3810,30.4087,307.8404,52.1803,0,U,56192,999,17198,.1246042E-3,.3128E-4,0
TELEOS-2,2023-057C,2026-05-20T08:41:56.893056,14.96365126,.00008348,9.9888,46.7712,263.8756,96.1362,0,U,56310,999,16862,.33202067E-3,.4552E-4,0
SNIPE 4,2023-072B,2026-05-20T15:07:30.086976,15.41159731,.00069159,97.5274,345.7828,73.3179,286.8826,0,U,56744,999,16586,.36360381E-3,.15007E-3,0
SNIPE 2,2023-072C,2026-05-20T14:54:09.650592,15.45332914,.00063961,97.5269,348.6326,97.9271,262.2704,0,U,56745,999,16598,.38509975E-3,.18302E-3,0
2023-072G,2023-072G,2026-05-20T14:54:43.312032,15.48891486,.0005537,97.4926,347.4087,89.4068,270.7817,0,U,56749,999,16619,.37074425E-3,.19923E-3,0
GEISAT PRECURSOR,2023-084C,2026-05-20T15:13:13.240992,15.34227722,.00071839,97.6193,280.6953,87.9467,272.2598,0,U,56934,999,16330,.16391876E-3,.535E-4,0
BLACKJACK ACES-3,2023-084U,2026-05-20T14:57:39.708864,15.18277720,.00040571,97.6178,275.6151,100.5387,259.6304,0,U,56950,999,16298,.15197587E-3,.3045E-4,0
BLACKJACK ACES-2,2023-084Z,2026-05-20T15:07:02.444160,15.18220705,.00022427,97.6177,275.7064,92.3031,267.8459,0,U,56955,999,16299,.17816376E-3,.3575E-4,0
BLACKJACK ACES-1,2023-084AA,2026-05-20T14:49:41.692224,15.18203764,.00015171,97.6168,275.4716,95.1410,264.9997,0,U,56956,999,11271,.21548599E-3,.4337E-4,0
ION SCV-011,2023-084AB,2026-05-20T05:56:00.672000,15.28539869,.0008333,98.1382,324.9447,129.2040,230.9938,0,U,56957,999,16154,.13607E-3,.3693E-4,0
GHOST-3,2023-084AC,2026-05-20T08:33:34.509888,15.46885312,.000673,97.6191,287.4631,45.2491,314.9305,0,U,56958,999,16371,.24547642E-3,.1226E-3,0
TOMORROW-R2,2023-084AG,2026-05-20T10:15:56.304000,15.90533549,.00026874,97.5949,301.0233,268.1033,91.9932,0,U,56962,999,16462,.51507315E-3,.156679E-2,.11179496E-4
AFR-1,2023-084AJ,2026-05-20T16:04:51.722112,15.28288904,.0011988,97.6241,276.7107,78.7011,281.5574,0,U,56964,999,16302,.11727644E-3,.3158E-4,0
METEOR-M2 3,2023-091A,2026-05-20T15:01:16.887360,14.24044145,.00028851,98.6097,196.1653,241.7844,118.3044,0,U,57166,999,15059,.10509437E-4,-.19E-6,0
UMKA 1 (RS40S),2023-091G,2026-05-20T14:06:38.013408,15.20460955,.00121324,97.5063,199.3960,209.0088,151.0474,0,U,57172,999,15981,.18552542E-3,.3986E-4,0
2023-091H,2023-091H,2026-05-20T14:50:30.981696,15.27968363,.00095938,97.5057,203.5990,201.5769,158.5067,0,U,57173,999,16009,.27831219E-3,.7529E-4,0
